[{"OBJECT_NAME":"NUSAT-48 (HENRIETTA LEAVITT)","OBJECT_ID":"2024-149AG","EPOCH":"2026-03-09T19:19:17.269536","MEAN_MOTION":15.29812597,"ECCENTRICITY":0.00027538,"INCLINATION":97.3923,"RA_OF_ASC_NODE":150.8264,"ARG_OF_PERICENTER":263.3026,"MEAN_ANOMALY":96.7901,"EPHEMERIS_TYPE":0,"CLASSIFICATION_TYPE":"U","NORAD_CAT_ID":60498,"ELEMENT_SET_NO":999,"REV_AT_EPOCH":8694,"BSTAR":0.00045211745,"MEAN_MOTION_DOT":0.00012988,"MEAN_MOTION_DDOT":0},{"OBJECT_NAME":"STARLINK-36169","OBJECT_ID":"2025-286E","EPOCH":"2026-03-09T04:30:38.209536","MEAN_MOTION":15.30198841,"ECCENTRICITY":9.387e-5,"INCLINATION":53.1599,"RA_OF_ASC_NODE":0.5231,"ARG_OF_PERICENTER":52.5724,"MEAN_ANOMALY":307.5362,"EPHEMERIS_TYPE":0,"CLASSIFICATION_TYPE":"U","NORAD_CAT_ID":66929,"ELEMENT_SET_NO":999,"REV_AT_EPOCH":1534,"BSTAR":0.0010794097,"MEAN_MOTION_DOT":0.00031745,"MEAN_MOTION_DDOT":0}]
